#dP2023  9 21  0  0  0.00000000      96 __u+U ITR00 EXT  IAC
## 2280 345600.00000000   900.00000000 60208 0.0000000000000
+  120   C06C07C08C09C10C11C12C13C14C16C19C20C21C22C23C24C25
+        C26C27C28C29C30C32C33C34C35C36C37C38C39C40C41C42C43
+        C44C45C46E02E03E04E05E07E08E09E10E11E12E13E14E15E18
+        E19E21E24E25E26E27E30E31E33E34E36G01G02G03G04G05G06
+        G07G08G09G10G11G12G13G14G15G16G17G18G19G20G21G22G23
+        G24G25G26G27G28G29G30G31G32J02J03J04R01R02R03R04R05
+        R07R08R09R11R12R13R14R15R16R17R18R19R20R21R22R24R25
+        R26  0  0  0  0  0  0  0  0  0  0  0  0  0  0  0  0
++        11  9 11 11  7  9  9 11 10 14  7  9  9  7  7 10  9
++         6  8  9  7  9 10  8  8  9  8  9  7  9 10  9  7  7
++         9  7  9  7  7  7  6  7  8  5  6  6  8  7  8  7  6
++         7  7  7  7  7  8  6  7  7  7  8  7  8  6  6  7  7
++         7  7  6  6  8  7  8  7  8  7  7  7  7  6  6  8  7
++         7  7  8  6  8  7  6  8  7  8 10  7  8  6  8  9  9
++         8  8  7  6  7  7  8  7  8  6  7 10  8  9 10  9  8
++         9  0  0  0  0  0  0  0  0  0  0  0  0  0  0  0  0
%c M  cc GPS ccc cccc cccc cccc cccc ccccc ccccc ccccc ccccc
%c cc cc ccc ccc cccc cccc cccc cccc ccccc ccccc ccccc ccccc
%f  0.0000000  0.000000000  0.00000000000  0.000000000000000
%f  0.0000000  0.000000000  0.00000000000  0.000000000000000
%i    0    0    0    0      0      0      0      0         0
%i    0    0    0    0      0      0      0      0         0
/* IAC                                ULTRA-RAPID PREDICTION
/* S/V CLOCKS ARE ALIGNED TO GNSS TIME                      
/* G:C1WC2W R:C1PC2P E:C1XC5X C:C2IC6I J:C1CC2S             
/* PCV:IGS20_2274 OL/AL:FES2004  NONE     YN ORB:CoN CLK:CoN
*  2023 09 21 10 15  0.00000000
PC06  -5588.978215  24058.950448  34207.851895     43.274250
PC07 -17682.885457  36483.418126 -11858.314170    -38.549752
PC08  -2052.259609  37088.856688 -19751.850604    335.043264
PC09   2497.617622  26354.553980  33351.166446    138.844901
PC10 -11229.722850  36748.760042 -17620.834120   -185.559323
PC11 -23324.611013  -9777.413599  11898.464038    843.417918
PC12  -5424.432494 -15439.606631  22647.590382    929.167878
PC13   2537.917906  39625.811263 -13596.910225    355.408721
PC14 -12962.279139  -8922.671349 -23039.444713    445.486502
PC16 -11105.421924  21719.286228  34615.715862    -90.087127
PC19  17880.141149  -1005.211657  21411.184767   -970.462067
PC20   7135.964152  16115.002957  21643.933189    266.261804
PC21   8899.031063 -24940.547528  -8768.626019   -970.938051
PC22  18939.479063 -18493.961767   8787.098687   -298.385738
PC23 -13948.200346   8553.974752  22614.217120   -865.500173
PC24 -13492.541512 -24423.111244   1021.661259    415.030685
PC25 -19589.804724  -9929.655317  17221.145617    216.016816
PC26  -1030.135609 -23764.803935 -14633.890860   -180.776893
PC27  -4528.622133  15602.286832 -22706.813730    202.368646
PC28 -21574.703846   9313.087143 -15053.082772    151.925502
PC29  27567.150016   2770.681073  -3317.621482    177.457498
PC30  15688.207819  13418.063454 -18789.482624     -5.243764
PC32  -8789.953799  25036.382891   8661.357668   -528.322131
PC33 -17863.049338   1015.541137 -21424.599160   -966.379711
PC34 -17022.898724 -12917.001091  17930.251095    264.270131
PC35  21291.309553 -10116.299865  14950.974789    541.868952
PC36  19345.080925  11181.145282 -16685.200778   -215.745033
PC37   -213.734397  23365.790466  15251.617507   -832.725725
PC38  -7796.715993  32653.397107 -25372.103027    106.198476
PC39 -16386.472471  19846.840014  33392.475018     -4.876521
PC40 -25152.659861  32280.016437 -10684.982465    -37.286601
PC41 -19051.517869  18074.434087  -9404.471525   -876.993016
PC42  -6037.426240 -17266.210877 -21034.468646   -541.511687
PC43 -27378.944693  -3402.228388   4134.321590     40.686550
PC44   4195.139413 -15868.671180  22558.593491    238.121126
PC45  13516.617068  -9071.757232 -22663.794414    -27.906034
PC46  14130.846468  23931.577452  -2254.854307    -85.931876
PE02 -15342.932327  -9386.898455  23514.912618     64.395947
PE03 -24447.829292  -1507.690434 -16635.772890    -57.996707
PE04  26659.497551 -12848.422638   -612.806025   -216.955788
PE05  -8003.698779 -15010.153940 -24226.948067     20.378396
PE07 -13547.798842  19742.886119  17406.873516    -76.434982
PE08 -26795.882644  12588.410471    142.699635   -149.603248
PE09  13691.113646 -19653.805036 -17387.156059   -164.110320
PE10  12275.912197 -10758.602670  24682.983706   -565.367501
PE11   1833.938853 -17505.115405  23786.528635   2967.404779
PE12  19944.273646  -3080.276195  21651.656910   -706.184164
PE13  -2524.711111  17076.883338 -24042.847024    -19.683551
PE14 -12447.772026 -12269.646259  18882.104675    346.607407
PE15 -20188.798579   2688.320505 -21477.859502    -54.979429
PE18   3050.056485  19836.050758 -23400.754935    556.065739
PE19  22938.845269   3475.932401  18384.574747  -1586.009262
PE21   6431.910624  25904.842139 -12788.709193   -553.883005
PE24   7158.179607 -28009.190735  -6417.592572   -333.476952
PE25  -6216.699700 -26106.912396  12504.584318     -2.126233
PE26  16847.108377  21257.354631 -11834.634935    228.842215
PE27  -6694.429202  28222.451042   5890.325743   -155.383431
PE30 -15911.006991  13408.625721  21045.876638   -517.654941
PE31  15713.651140 -13910.317092 -20863.190458     -5.612306
PE33  25701.893788  13474.089524   5790.488440     -0.313604
PE34 -25817.325749 -13015.058413  -6397.814444    -68.210525
PE36 -16360.204518 -21267.160991  12502.904580   -119.250176
PG01  22009.220122  15017.918841   1971.620636    165.009161
PG02  20663.719138  16104.769732  -4398.758912   -551.386360
PG03  12546.955877  11274.711120  20397.194175   -123.312655
PG04  21088.871902   3375.623314  15874.865765    162.325582
PG05  -6237.047923 -23391.672652 -10996.728821   -143.551597
PG06   6008.610734 -13590.808199  22071.034560    546.238434
PG07  21393.831592   1942.791840 -15450.271304     61.311010
PG08  12861.811992  10247.144738 -21006.832201   -143.360833
PG09  24655.378123  -5034.316116   8497.987575    -53.828149
PG10 -10893.004878  20089.366446 -13070.481205    -54.255714
PG11  -6901.278970 -19922.316227  16197.663112   -379.174955
PG12 -10517.590020 -15302.568110  18748.312525   -427.220720
PG13  -3027.944616 -14819.910416 -22020.872876    575.103624
PG14  13361.595166 -17017.615287 -15269.048422    191.372577
PG15 -14833.108075  -8801.693087 -20734.769094     79.619207
PG16    149.948523  25403.679558  -7201.914675   -450.965010
PG17  21510.333559 -13779.582576   7914.768558    723.823489
PG18 -19880.621676     42.323086 -17696.510088   -424.380965
PG19  15680.475520 -15425.642668  14436.271958    374.460590
PG20  -1060.176989 -26625.271405   1003.677456    410.771836
PG21  19393.559230  17282.549111  -6945.357619    148.465139
PG22  10663.649663 -22697.623145  -8697.221288    117.627389
PG23 -14613.969192   8068.921011 -20608.697951     71.432234
PG24 -21499.778608 -15701.828362  -3366.135403   -325.472341
PG25 -15264.643418   -469.418095  21407.880510    468.881975
PG26  -4106.752177  25652.022969   4411.227141    227.413974
PG27   -453.045837  16261.270770 -21169.181174    -43.010216
PG28  -7808.705353  13037.222439  21761.272405    -12.904550
PG29 -25121.679363   3062.369884   8191.001755   -609.488479
PG30  14969.339645  -7711.282779 -20471.541827   -485.819570
PG31   1551.741349  18107.925947  19030.780182   -223.665523
PG32 -17864.643160  16414.713205  10742.928234   -561.304551
PJ02 -29900.011732  25785.067792  19843.823481     -4.364586
PJ03 -28766.554377  15720.397216 -21923.823494     -3.212428
PJ04 -23782.521499  34129.154450  -2012.447678     70.708381
PR01  12431.844877   1931.192284  22182.843442     66.101240
PR02  19226.787804 -12726.236911  11025.896420    -22.410833
PR03  14598.892171 -19978.612165  -6291.269883     85.620367
PR04   2338.583538 -15853.642821 -19829.992514    203.697639
PR05 -11307.039200  -3364.353199 -22607.461397    119.358989
PR07 -14049.151303  19999.106798   7238.241039     65.141955
PR08  -1911.976222  15804.271169  19969.933228    -72.617759
PR09 -10757.585466   3570.290882  22872.667412    143.442825
PR11   6846.711447  24498.916046   2033.481182   -170.398440
PR12  12775.640184  15179.116531 -15995.321246     31.522300
PR13  11239.117633   -994.189454 -22885.867772    -39.435501
PR14   2255.575287 -19287.437808 -16512.540855     25.292391
PR15  -7303.483270 -24429.535992   -585.395525     86.020202
PR16 -12765.701192 -15338.973820  15879.845229     18.898255
PR17   8588.559487  -8477.880044  22474.246814     19.020149
PR18  -9086.822816 -11853.431182  20682.292441    103.015041
PR19 -21220.218464 -10394.294258   9628.275594   -248.047135
PR20 -22885.328266  -1315.883100 -11148.433270   -100.434807
PR21  -7740.442317   8651.602779 -22716.066833    -39.672046
PR22   9671.440006  12519.174480 -19984.633029     85.126650
PR24  22706.449514   -106.888602  11613.977255    -25.226422
PR25  -9139.928738   8338.504943 -22305.071310     31.883209
PR26  -2243.337898  16082.738308  19693.063987    -23.198867
EOF
